OBJECT_NAME,OBJECT_ID,EPOCH,MEAN_MOTION,ECCENTRICITY,INCLINATION,RA_OF_ASC_NODE,ARG_OF_PERICENTER,MEAN_ANOMALY,EPHEMERIS_TYPE,CLASSIFICATION_TYPE,NORAD_CAT_ID,ELEMENT_SET_NO,REV_AT_EPOCH,BSTAR,MEAN_MOTION_DOT,MEAN_MOTION_DDOT
STARLINK-3540,2022-016F,2025-10-10T07:24:00.448992,15.08838560,.00012506,53.2160,284.2866,90.7719,269.3416,0,U,51719,999,20072,.18479723E-4,.6E-7,0
STARLINK-3526,2022-016G,2025-10-10T05:18:10.841184,15.08839155,.00015021,53.2176,284.5727,95.9657,264.1507,0,U,51720,999,20070,.36192523E-4,.288E-5,0
STARLINK-3524,2022-016H,2025-10-10T07:09:28.437984,15.08845128,.00013949,53.2165,284.2649,90.3682,269.7470,0,U,51721,999,20072,-.51209889E-4,-.1103E-4,0
STARLINK-3535,2022-016J,2025-10-10T06:46:53.577984,15.08841767,.00013948,53.2173,284.3262,91.5287,268.5865,0,U,51722,999,20071,.8970875E-4,.114E-4,0
STARLINK-3529,2022-016L,2025-10-10T06:36:17.591040,15.08841412,.00012802,53.2166,284.3573,89.4617,270.6522,0,U,51724,999,20071,.38200128E-4,.32E-5,0
STARLINK-3522,2022-016M,2025-10-10T06:52:11.866944,15.08851752,.00016907,53.2153,284.3091,81.6770,278.4414,0,U,51725,999,20071,.19661486E-3,.2843E-4,0
STARLINK-3527,2022-016N,2025-10-10T06:00:31.345056,15.08842535,.00014212,53.2172,274.4691,87.5757,272.5398,0,U,51726,999,20085,.18657138E-4,.9E-7,0
STARLINK-3532,2022-016P,2025-10-10T06:41:35.569824,15.08838265,.00014609,53.2170,284.3412,90.0543,270.0617,0,U,51727,999,20071,.74287206E-4,.894E-5,0
STARLINK-3523,2022-016R,2025-10-10T06:05:49.366176,15.08839692,.00014103,53.2173,274.4528,92.1006,268.0148,0,U,51729,999,20085,.16475108E-4,-.26E-6,0
STARLINK-3514,2022-016T,2025-10-10T05:55:13.565856,15.08840780,.00013287,53.2164,274.4852,90.7793,269.3352,0,U,51731,999,20085,.67004927E-4,.779E-5,0
STARLINK-3518,2022-016U,2025-10-10T05:34:01.960032,15.08849558,.00015335,53.2148,274.5524,74.4612,285.6550,0,U,51732,999,20199,.18352523E-3,.2635E-4,0
STARLINK-3525,2022-016V,2025-10-10T05:46:00.858144,15.08826923,.00014651,53.2165,274.5247,91.8113,268.3047,0,U,51733,999,20085,.5790171E-4,.633E-5,0
STARLINK-3450,2022-016W,2025-10-10T05:18:08.282880,15.08836574,.00012798,53.2160,274.6027,88.2833,271.8306,0,U,51734,999,20084,.4237906E-4,.387E-5,0
STARLINK-3517,2022-016X,2025-10-10T05:28:44.175648,15.08837325,.00012244,53.2159,274.5689,91.7943,268.3190,0,U,51735,999,20085,.1006682E-3,.1315E-4,0
STARLINK-3447,2022-016Y,2025-10-10T05:19:31.764288,15.08837124,.00012865,53.2162,274.6845,89.9332,270.1807,0,U,51736,999,20084,.56412769E-4,.61E-5,0
STARLINK-3509,2022-016Z,2025-10-10T05:23:26.201184,15.08836895,.00014054,53.2163,274.5847,86.3390,273.7763,0,U,51737,999,20084,.58132741E-4,.637E-5,0
STARLINK-3515,2022-016AA,2025-10-10T06:32:19.521888,15.08839069,.0001404,53.2171,274.3710,93.2508,266.8645,0,U,51738,999,20085,-.57339275E-4,-.12E-4,0
STARLINK-3516,2022-016AB,2025-10-10T06:48:13.635360,15.08811836,.00019094,53.2160,274.3212,103.6689,256.4516,0,U,51739,999,20085,.17428797E-3,.2485E-4,0
STARLINK-3500,2022-016AC,2025-10-10T06:21:43.526304,15.08842848,.00014404,53.2169,274.4031,75.5148,284.6004,0,U,51740,999,20085,.69534943E-4,.819E-5,0
STARLINK-3520,2022-016AD,2025-10-10T06:38:59.919360,15.08840719,.00013045,53.2163,274.3616,88.3604,271.7538,0,U,51741,999,20085,-.13223067E-4,-.498E-5,0
STARLINK-3521,2022-016AE,2025-10-10T06:42:57.338784,15.08836207,.00013121,53.2161,274.5301,87.3671,272.7471,0,U,51742,999,20085,.35167614E-4,.272E-5,0
STARLINK-3512,2022-016AF,2025-10-10T05:08:51.020160,15.08835862,.00014269,53.2161,264.5565,86.4273,273.6882,0,U,51743,999,20098,.30391757E-4,.196E-5,0
STARLINK-3452,2022-016AG,2025-10-10T04:35:44.880288,15.08850733,.00014005,53.2171,274.7619,87.0532,273.0620,0,U,51744,999,20084,.10720181E-3,.1419E-4,0
STARLINK-3449,2022-016AH,2025-10-10T06:27:01.271808,15.08844935,.00014157,53.2167,274.3870,91.4050,268.7104,0,U,51745,999,20085,.25508744E-4,.118E-5,0
STARLINK-3502,2022-016AJ,2025-10-10T05:15:32.309280,15.08840137,.00013753,53.2161,264.6200,83.9992,276.1157,0,U,51746,999,20098,.3968446E-4,.344E-5,0
STARLINK-3446,2022-016AK,2025-10-10T06:17:47.929920,15.08844757,.00014612,53.2172,274.4649,94.2694,265.8465,0,U,51747,999,20085,.66810758E-4,.776E-5,0
STARLINK-3501,2022-016AL,2025-10-10T05:03:33.850080,15.08837918,.00016236,53.2170,264.6465,86.9287,273.1891,0,U,51748,999,20098,.35817609E-4,.282E-5,0
STARLINK-3451,2022-016AM,2025-10-10T07:20:02.647680,15.08842043,.00013829,53.2164,274.4043,88.7058,271.4093,0,U,51749,999,20085,.65150994E-4,.749E-5,0
STARLINK-3505,2022-016AN,2025-10-10T04:54:20.889216,15.08835857,.00010487,53.2150,264.6879,100.1224,259.9886,0,U,51750,999,20098,.3940532E-4,.339E-5,0
STARLINK-3506,2022-016AP,2025-10-10T05:10:14.193120,15.08842509,.00013968,53.2161,264.6364,90.1323,269.9830,0,U,51751,999,20098,.3088969E-4,.204E-5,0
