STARLINK-3540           
1 51719U 22016F   25283.30833853  .00000006  00000+0  18480-4 0  9997
2 51719  53.2160 284.2866 0001250  90.7719 269.3416 15.08838560200725
STARLINK-3526           
1 51720U 22016G   25283.22095881  .00000288  00000+0  36193-4 0  9994
2 51720  53.2176 284.5727 0001502  95.9657 264.1507 15.08839155200704
STARLINK-3524           
1 51721U 22016H   25283.29824581 -.00001103  00000+0 -51210-4 0  9995
2 51721  53.2165 284.2649 0001394  90.3682 269.7470 15.08845128200728
STARLINK-3535           
1 51722U 22016J   25283.28256456  .00001140  00000+0  89709-4 0  9998
2 51722  53.2173 284.3262 0001394  91.5287 268.5865 15.08841767200713
STARLINK-3529           
1 51724U 22016L   25283.27520360  .00000320  00000+0  38200-4 0  9996
2 51724  53.2166 284.3573 0001280  89.4617 270.6522 15.08841412200710
STARLINK-3522           
1 51725U 22016M   25283.28624846  .00002843  00000+0  19661-3 0  9993
2 51725  53.2153 284.3091 0001690  81.6770 278.4414 15.08851752200715
STARLINK-3527           
1 51726U 22016N   25283.25036279  .00000009  00000+0  18657-4 0  9995
2 51726  53.2172 274.4691 0001421  87.5757 272.5398 15.08842535200855
STARLINK-3532           
1 51727U 22016P   25283.27888391  .00000894  00000+0  74287-4 0  9991
2 51727  53.2170 284.3412 0001460  90.0543 270.0617 15.08838265200717
STARLINK-3523           
1 51729U 22016R   25283.25404359 -.00000026  00000+0  16475-4 0  9992
2 51729  53.2173 274.4528 0001410  92.1006 268.0148 15.08839692200858
STARLINK-3514           
1 51731U 22016T   25283.24668479  .00000779  00000+0  67005-4 0  9998
2 51731  53.2164 274.4852 0001328  90.7793 269.3352 15.08840780200857
STARLINK-3518           
1 51732U 22016U   25283.23196713  .00002635  00000+0  18353-3 0  9999
2 51732  53.2148 274.5524 0001533  74.4612 285.6550 15.08849558201993
STARLINK-3525           
1 51733U 22016V   25283.24028771  .00000633  00000+0  57902-4 0  9999
2 51733  53.2165 274.5247 0001465  91.8113 268.3047 15.08826923200852
STARLINK-3450           
1 51734U 22016W   25283.22092920  .00000387  00000+0  42379-4 0  9993
2 51734  53.2160 274.6027 0001279  88.2833 271.8306 15.08836574200846
STARLINK-3517           
1 51735U 22016X   25283.22828907  .00001315  00000+0  10067-3 0  9996
2 51735  53.2159 274.5689 0001224  91.7943 268.3190 15.08837325200857
STARLINK-3447           
1 51736U 22016Y   25283.22189542  .00000610  00000+0  56413-4 0  9995
2 51736  53.2162 274.6845 0001286  89.9332 270.1807 15.08837124200848
STARLINK-3509           
1 51737U 22016Z   25283.22460881  .00000637  00000+0  58133-4 0  9994
2 51737  53.2163 274.5847 0001405  86.3390 273.7763 15.08836895200843
STARLINK-3515           
1 51738U 22016AA  25283.27244817 -.00001200  00000+0 -57339-4 0  9995
2 51738  53.2171 274.3710 0001404  93.2508 266.8645 15.08839069200856
STARLINK-3516           
1 51739U 22016AB  25283.28349115  .00002485  00000+0  17429-3 0  9993
2 51739  53.2160 274.3212 0001909 103.6689 256.4516 15.08811836200852
STARLINK-3500           
1 51740U 22016AC  25283.26508711  .00000819  00000+0  69535-4 0  9997
2 51740  53.2169 274.4031 0001440  75.5148 284.6004 15.08842848200852
STARLINK-3520           
1 51741U 22016AD  25283.27708240 -.00000498  00000+0 -13223-4 0  9996
2 51741  53.2163 274.3616 0001304  88.3604 271.7538 15.08840719200857
STARLINK-3521           
1 51742U 22016AE  25283.27983031  .00000272  00000+0  35168-4 0  9990
2 51742  53.2161 274.5301 0001312  87.3671 272.7471 15.08836207200855
STARLINK-3512           
1 51743U 22016AF  25283.21447940  .00000196  00000+0  30392-4 0  9998
2 51743  53.2161 264.5565 0001426  86.4273 273.6882 15.08835862200987
STARLINK-3452           
1 51744U 22016AG  25283.19149167  .00001419  00000+0  10720-3 0  9997
2 51744  53.2171 274.7619 0001400  87.0532 273.0620 15.08850733200842
STARLINK-3449           
1 51745U 22016AH  25283.26876472  .00000118  00000+0  25509-4 0  9999
2 51745  53.2167 274.3870 0001415  91.4050 268.7104 15.08844935200859
STARLINK-3502           
1 51746U 22016AJ  25283.21912395  .00000344  00000+0  39684-4 0  9990
2 51746  53.2161 264.6200 0001375  83.9992 276.1157 15.08840137200984
STARLINK-3446           
1 51747U 22016AK  25283.26236030  .00000776  00000+0  66811-4 0  9992
2 51747  53.2172 274.4649 0001461  94.2694 265.8465 15.08844757200858
STARLINK-3501           
1 51748U 22016AL  25283.21080845  .00000282  00000+0  35818-4 0  9994
2 51748  53.2170 264.6465 0001623  86.9287 273.1891 15.08837918200980
STARLINK-3451           
1 51749U 22016AM  25283.30558620  .00000749  00000+0  65151-4 0  9997
2 51749  53.2164 274.4043 0001382  88.7058 271.4093 15.08842043200859
STARLINK-3505           
1 51750U 22016AN  25283.20440844  .00000339  00000+0  39405-4 0  9994
2 51750  53.2150 264.6879 0001048 100.1224 259.9886 15.08835857200987
STARLINK-3506           
1 51751U 22016AP  25283.21544205  .00000204  00000+0  30890-4 0  9992
2 51751  53.2161 264.6364 0001396  90.1323 269.9830 15.08842509200985
